CCSDS_OMM_VERS = 2.0
CREATION_DATE  = 
ORIGINATOR     = 

OBJECT_NAME    = ATLAS CENTAUR 2
OBJECT_ID      = 1963-047A
CENTER_NAME    = EARTH
REF_FRAME      = TEME
TIME_SYSTEM    = UTC
MEAN_ELEMENT_THEORY = SGP/SGP4

EPOCH          = 2025-11-13T17:31:38.423712
MEAN_MOTION    = 14.11491836
ECCENTRICITY   = .0549746
INCLINATION    = 30.3511
RA_OF_ASC_NODE = 123.4610
ARG_OF_PERICENTER = 138.6814
MEAN_ANOMALY   = 225.6737

EPHEMERIS_TYPE = 0
CLASSIFICATION_TYPE = U
NORAD_CAT_ID   = 694
ELEMENT_SET_NO = 999
REV_AT_EPOCH   = 11522
BSTAR          = .99813E-3
MEAN_MOTION_DOT = .8179E-4
MEAN_MOTION_DDOT = 0

CCSDS_OMM_VERS = 2.0
CREATION_DATE  = 
ORIGINATOR     = 

OBJECT_NAME    = THOR AGENA D R/B
OBJECT_ID      = 1964-002A
CENTER_NAME    = EARTH
REF_FRAME      = TEME
TIME_SYSTEM    = UTC
MEAN_ELEMENT_THEORY = SGP/SGP4

EPOCH          = 2025-11-13T11:39:29.479104
MEAN_MOTION    = 14.33935151
ECCENTRICITY   = .00320787
INCLINATION    = 99.1223
RA_OF_ASC_NODE = 319.5216
ARG_OF_PERICENTER = 235.9161
MEAN_ANOMALY   = 123.8977

EPHEMERIS_TYPE = 0
CLASSIFICATION_TYPE = U
NORAD_CAT_ID   = 733
ELEMENT_SET_NO = 999
REV_AT_EPOCH   = 22164
BSTAR          = .21916082E-3
MEAN_MOTION_DOT = .565E-5
MEAN_MOTION_DDOT = 0

CCSDS_OMM_VERS = 2.0
CREATION_DATE  = 
ORIGINATOR     = 

OBJECT_NAME    = SL-3 R/B
OBJECT_ID      = 1964-053B
CENTER_NAME    = EARTH
REF_FRAME      = TEME
TIME_SYSTEM    = UTC
MEAN_ELEMENT_THEORY = SGP/SGP4

EPOCH          = 2025-11-13T10:00:43.475040
MEAN_MOTION    = 14.61229180
ECCENTRICITY   = .0071123
INCLINATION    = 65.0770
RA_OF_ASC_NODE = 312.0827
ARG_OF_PERICENTER = 330.2495
MEAN_ANOMALY   = 29.4568

EPHEMERIS_TYPE = 0
CLASSIFICATION_TYPE = U
NORAD_CAT_ID   = 877
ELEMENT_SET_NO = 999
REV_AT_EPOCH   = 24980
BSTAR          = .22648E-3
MEAN_MOTION_DOT = .1036E-4
MEAN_MOTION_DDOT = 0

CCSDS_OMM_VERS = 2.0
CREATION_DATE  = 
ORIGINATOR     = 

OBJECT_NAME    = SL-8 R/B
OBJECT_ID      = 1967-045B
CENTER_NAME    = EARTH
REF_FRAME      = TEME
TIME_SYSTEM    = UTC
MEAN_ELEMENT_THEORY = SGP/SGP4

EPOCH          = 2025-11-13T10:46:10.303104
MEAN_MOTION    = 14.45505036
ECCENTRICITY   = .00654
INCLINATION    = 74.0111
RA_OF_ASC_NODE = 205.1547
ARG_OF_PERICENTER = 240.9427
MEAN_ANOMALY   = 118.5170

EPHEMERIS_TYPE = 0
CLASSIFICATION_TYPE = U
NORAD_CAT_ID   = 2802
ELEMENT_SET_NO = 999
REV_AT_EPOCH   = 7222
BSTAR          = .2357E-3
MEAN_MOTION_DOT = .824E-5
MEAN_MOTION_DDOT = 0

CCSDS_OMM_VERS = 2.0
CREATION_DATE  = 
ORIGINATOR     = 

OBJECT_NAME    = SL-8 R/B
OBJECT_ID      = 1968-040B
CENTER_NAME    = EARTH
REF_FRAME      = TEME
TIME_SYSTEM    = UTC
MEAN_ELEMENT_THEORY = SGP/SGP4

EPOCH          = 2025-11-13T14:34:47.124768
MEAN_MOTION    = 15.02262351
ECCENTRICITY   = .0023612
INCLINATION    = 74.0314
RA_OF_ASC_NODE = 190.7033
ARG_OF_PERICENTER = 40.2630
MEAN_ANOMALY   = 320.0301

EPHEMERIS_TYPE = 0
CLASSIFICATION_TYPE = U
NORAD_CAT_ID   = 3230
ELEMENT_SET_NO = 999
REV_AT_EPOCH   = 7257
BSTAR          = .74453E-3
MEAN_MOTION_DOT = .9858E-4
MEAN_MOTION_DDOT = 0

CCSDS_OMM_VERS = 2.0
CREATION_DATE  = 
ORIGINATOR     = 

OBJECT_NAME    = OAO 2
OBJECT_ID      = 1968-110A
CENTER_NAME    = EARTH
REF_FRAME      = TEME
TIME_SYSTEM    = UTC
MEAN_ELEMENT_THEORY = SGP/SGP4

EPOCH          = 2025-11-13T17:49:17.302368
MEAN_MOTION    = 14.47218440
ECCENTRICITY   = .0005726
INCLINATION    = 34.9920
RA_OF_ASC_NODE = 192.5401
ARG_OF_PERICENTER = 340.0763
MEAN_ANOMALY   = 19.9703

EPHEMERIS_TYPE = 0
CLASSIFICATION_TYPE = U
NORAD_CAT_ID   = 3597
ELEMENT_SET_NO = 999
REV_AT_EPOCH   = 229
BSTAR          = .19001E-3
MEAN_MOTION_DOT = .685E-5
MEAN_MOTION_DDOT = 0

CCSDS_OMM_VERS = 2.0
CREATION_DATE  = 
ORIGINATOR     = 

OBJECT_NAME    = ISIS 1
OBJECT_ID      = 1969-009A
CENTER_NAME    = EARTH
REF_FRAME      = TEME
TIME_SYSTEM    = UTC
MEAN_ELEMENT_THEORY = SGP/SGP4

EPOCH          = 2025-11-13T14:05:51.994176
MEAN_MOTION    = 11.30338512
ECCENTRICITY   = .1707413
INCLINATION    = 88.4512
RA_OF_ASC_NODE = 167.9840
ARG_OF_PERICENTER = 323.6116
MEAN_ANOMALY   = 25.9808

EPHEMERIS_TYPE = 0
CLASSIFICATION_TYPE = U
NORAD_CAT_ID   = 3669
ELEMENT_SET_NO = 999
REV_AT_EPOCH   = 33541
BSTAR          = .26697E-3
MEAN_MOTION_DOT = .372E-5
MEAN_MOTION_DDOT = 0

CCSDS_OMM_VERS = 2.0
CREATION_DATE  = 
ORIGINATOR     = 

OBJECT_NAME    = SERT 2
OBJECT_ID      = 1970-009A
CENTER_NAME    = EARTH
REF_FRAME      = TEME
TIME_SYSTEM    = UTC
MEAN_ELEMENT_THEORY = SGP/SGP4

EPOCH          = 2025-11-13T18:50:07.425024
MEAN_MOTION    = 13.58712283
ECCENTRICITY   = .0005666
INCLINATION    = 99.2601
RA_OF_ASC_NODE = 262.3074
ARG_OF_PERICENTER = 98.1783
MEAN_ANOMALY   = 278.8686

EPHEMERIS_TYPE = 0
CLASSIFICATION_TYPE = U
NORAD_CAT_ID   = 4327
ELEMENT_SET_NO = 999
REV_AT_EPOCH   = 76415
BSTAR          = .16595E-3
MEAN_MOTION_DOT = .8E-6
MEAN_MOTION_DDOT = 0

CCSDS_OMM_VERS = 2.0
CREATION_DATE  = 
ORIGINATOR     = 

OBJECT_NAME    = SL-3 R/B
OBJECT_ID      = 1971-028B
CENTER_NAME    = EARTH
REF_FRAME      = TEME
TIME_SYSTEM    = UTC
MEAN_ELEMENT_THEORY = SGP/SGP4

EPOCH          = 2025-11-13T19:37:34.051872
MEAN_MOTION    = 15.52505155
ECCENTRICITY   = .0021268
INCLINATION    = 81.2401
RA_OF_ASC_NODE = 194.1438
ARG_OF_PERICENTER = 346.7471
MEAN_ANOMALY   = 13.3215

EPHEMERIS_TYPE = 0
CLASSIFICATION_TYPE = U
NORAD_CAT_ID   = 5118
ELEMENT_SET_NO = 999
REV_AT_EPOCH   = 97064
BSTAR          = .69316E-3
MEAN_MOTION_DOT = .4305E-3
MEAN_MOTION_DDOT = 0

CCSDS_OMM_VERS = 2.0
CREATION_DATE  = 
ORIGINATOR     = 

OBJECT_NAME    = ASTEX 1
OBJECT_ID      = 1971-089A
CENTER_NAME    = EARTH
REF_FRAME      = TEME
TIME_SYSTEM    = UTC
MEAN_ELEMENT_THEORY = SGP/SGP4

EPOCH          = 2025-11-13T10:58:14.018016
MEAN_MOTION    = 14.50589363
ECCENTRICITY   = .0017674
INCLINATION    = 92.7122
RA_OF_ASC_NODE = 114.1491
ARG_OF_PERICENTER = 114.0250
MEAN_ANOMALY   = 246.2808

EPHEMERIS_TYPE = 0
CLASSIFICATION_TYPE = U
NORAD_CAT_ID   = 5560
ELEMENT_SET_NO = 999
REV_AT_EPOCH   = 84545
BSTAR          = .38754E-3
MEAN_MOTION_DOT = .1521E-4
MEAN_MOTION_DDOT = 0

CCSDS_OMM_VERS = 2.0
CREATION_DATE  = 
ORIGINATOR     = 

OBJECT_NAME    = SL-8 R/B
OBJECT_ID      = 1971-119B
CENTER_NAME    = EARTH
REF_FRAME      = TEME
TIME_SYSTEM    = UTC
MEAN_ELEMENT_THEORY = SGP/SGP4

EPOCH          = 2025-11-13T08:16:36.527808
MEAN_MOTION    = 14.35005299
ECCENTRICITY   = .0560965
INCLINATION    = 73.8893
RA_OF_ASC_NODE = 32.7312
ARG_OF_PERICENTER = 22.9809
MEAN_ANOMALY   = 339.5406

EPHEMERIS_TYPE = 0
CLASSIFICATION_TYPE = U
NORAD_CAT_ID   = 5730
ELEMENT_SET_NO = 999
REV_AT_EPOCH   = 63878
BSTAR          = .83134E-3
MEAN_MOTION_DOT = .15733E-3
MEAN_MOTION_DDOT = 0

CCSDS_OMM_VERS = 2.0
CREATION_DATE  = 
ORIGINATOR     = 

OBJECT_NAME    = OAO 3 (COPERNICUS)
OBJECT_ID      = 1972-065A
CENTER_NAME    = EARTH
REF_FRAME      = TEME
TIME_SYSTEM    = UTC
MEAN_ELEMENT_THEORY = SGP/SGP4

EPOCH          = 2025-11-13T21:11:34.814112
MEAN_MOTION    = 14.59870934
ECCENTRICITY   = .0007301
INCLINATION    = 35.0055
RA_OF_ASC_NODE = 237.0481
ARG_OF_PERICENTER = 290.3395
MEAN_ANOMALY   = 125.3969

EPHEMERIS_TYPE = 0
CLASSIFICATION_TYPE = U
NORAD_CAT_ID   = 6153
ELEMENT_SET_NO = 999
REV_AT_EPOCH   = 82926
BSTAR          = .21718E-3
MEAN_MOTION_DOT = .1034E-4
MEAN_MOTION_DDOT = 0

